[{"OBJECT_NAME":"SPAWAR-CAL-OR","OBJECT_ID":"2018-099W","EPOCH":"2026-03-09T16:14:17.483136","MEAN_MOTION":15.21464282,"ECCENTRICITY":0.00104186,"INCLINATION":97.3939,"RA_OF_ASC_NODE":118.6375,"ARG_OF_PERICENTER":310.1337,"MEAN_ANOMALY":49.8986,"EPHEMERIS_TYPE":0,"CLASSIFICATION_TYPE":"U","NORAD_CAT_ID":43778,"ELEMENT_SET_NO":999,"REV_AT_EPOCH":39751,"BSTAR":0.00050868189,"MEAN_MOTION_DOT":0.00011389,"MEAN_MOTION_DDOT":0},{"OBJECT_NAME":"ICEYE-X61","OBJECT_ID":"2025-276CS","EPOCH":"2026-03-09T17:37:00.817536","MEAN_MOTION":15.18776211,"ECCENTRICITY":0.00020811,"INCLINATION":97.4269,"RA_OF_ASC_NODE":144.0181,"ARG_OF_PERICENTER":344.9229,"MEAN_ANOMALY":15.1943,"EPHEMERIS_TYPE":0,"CLASSIFICATION_TYPE":"U","NORAD_CAT_ID":66754,"ELEMENT_SET_NO":999,"REV_AT_EPOCH":1532,"BSTAR":0.00047624581,"MEAN_MOTION_DOT":9.84e-5,"MEAN_MOTION_DDOT":0}]
