SPAWAR-CAL-OR           
1 43778U 18099W   26068.67659123  .00011389  00000+0  50868-3 0  9998
2 43778  97.3939 118.6375 0010419 310.1337  49.8986 15.21464282397519
ICEYE-X61               
1 66754U 25276CS  26068.73403723  .00009840  00000+0  47625-3 0  9998
2 66754  97.4269 144.0181 0002081 344.9229  15.1943 15.18776211 15323
